{
    "links": {
        "self": "http://www.neowsapp.com/rest/v1/neo/3991694?api_key=iIulBulltgU6a56xZRHN4H3l9WmuAYTsLGpBGhQ2"
    },
    "id": "3991694",
    "neo_reference_id": "3991694",
    "name": "(2020 DS1)",
    "designation": "2020 DS1",
    "nasa_jpl_url": "http://ssd.jpl.nasa.gov/sbdb.cgi?sstr=3991694",
    "absolute_magnitude_h": 26.077,
    "estimated_diameter": {
        "kilometers": {
            "estimated_diameter_min": 0.0161865755,
            "estimated_diameter_max": 0.0361942831
        },
        "meters": {
            "estimated_diameter_min": 16.186575474,
            "estimated_diameter_max": 36.1942830828
        },
        "miles": {
            "estimated_diameter_min": 0.0100578686,
            "estimated_diameter_max": 0.0224900779
        },
        "feet": {
            "estimated_diameter_min": 53.1055642782,
            "estimated_diameter_max": 118.7476517094
        }
    },
    "is_potentially_hazardous_asteroid": false,
    "close_approach_data": [
        {
            "close_approach_date": "2020-02-03",
            "close_approach_date_full": "2020-Feb-03 02:49",
            "epoch_date_close_approach": 1580698140000,
            "relative_velocity": {
                "kilometers_per_second": "8.3752122152",
                "kilometers_per_hour": "30150.7639748075",
                "miles_per_hour": "18734.5122042353"
            },
            "miss_distance": {
                "astronomical": "0.0294681275",
                "lunar": "11.4631015975",
                "kilometers": "4408369.106888425",
                "miles": "2739233.543073265"
            },
            "orbiting_body": "Earth"
        }
    ],
    "orbital_data": {
        "orbit_id": "1",
        "orbit_determination_date": "2020-02-19 09:39:21",
        "first_observation_date": "2020-02-16",
        "last_observation_date": "2020-02-19",
        "data_arc_in_days": 3,
        "observations_used": 13,
        "orbit_uncertainty": "9",
        "minimum_orbit_intersection": ".0222279",
        "jupiter_tisserand_invariant": "3.142",
        "epoch_osculation": "2458896.5",
        "eccentricity": ".6114242429711439",
        "semi_major_axis": "2.55923863300344",
        "inclination": "2.529982014863038",
        "ascending_node_longitude": "147.8910989705382",
        "orbital_period": "1495.424878257426",
        "perihelion_distance": ".9944580892368062",
        "perihelion_argument": "328.5561928406476",
        "aphelion_distance": "4.124019176770073",
        "perihelion_time": "2458869.563744098609",
        "mean_anomaly": "6.484479605421869",
        "mean_motion": ".2407342590284423",
        "equinox": "J2000",
        "orbit_class": {
            "orbit_class_type": "APO",
            "orbit_class_description": "Near-Earth asteroid orbits which cross the Earth’s orbit similar to that of 1862 Apollo",
            "orbit_class_range": "a (semi-major axis) > 1.0 AU; q (perihelion) < 1.017 AU"
        }
    },
    "is_sentry_object": false
}